{
  "links" : {
    "next" : "https://api.nasa.gov/neo/rest/v1/feed?start_date=2009-09-09&end_date=2009-09-09&detailed=true&api_key=t0TVs3DtDT2H8Oy2Zy8m2eVrNsAVKAexjcZXUckd",
    "prev" : "https://api.nasa.gov/neo/rest/v1/feed?start_date=2009-09-07&end_date=2009-09-07&detailed=true&api_key=t0TVs3DtDT2H8Oy2Zy8m2eVrNsAVKAexjcZXUckd",
    "self" : "https://api.nasa.gov/neo/rest/v1/feed?start_date=2009-09-08&end_date=2009-09-08&detailed=true&api_key=t0TVs3DtDT2H8Oy2Zy8m2eVrNsAVKAexjcZXUckd"
  },
  "element_count" : 5,
  "near_earth_objects" : {
    "2009-09-08" : [ {
      "links" : {
        "self" : "https://api.nasa.gov/neo/rest/v1/neo/3755113?api_key=t0TVs3DtDT2H8Oy2Zy8m2eVrNsAVKAexjcZXUckd"
      },
      "neo_reference_id" : "3755113",
      "name" : "(2016 NS16)",
      "nasa_jpl_url" : "http://ssd.jpl.nasa.gov/sbdb.cgi?sstr=3755113",
      "absolute_magnitude_h" : 23.2,
      "estimated_diameter" : {
        "kilometers" : {
          "estimated_diameter_min" : 0.0608912622,
          "estimated_diameter_max" : 0.1361570015
        },
        "meters" : {
          "estimated_diameter_min" : 60.8912622106,
          "estimated_diameter_max" : 136.1570015386
        },
        "miles" : {
          "estimated_diameter_min" : 0.0378360645,
          "estimated_diameter_max" : 0.0846040122
        },
        "feet" : {
          "estimated_diameter_min" : 199.7744887109,
          "estimated_diameter_max" : 446.7093369279
        }
      },
      "is_potentially_hazardous_asteroid" : false,
      "close_approach_data" : [ {
        "close_approach_date" : "2009-09-08",
        "epoch_date_close_approach" : 1252393200000,
        "relative_velocity" : {
          "kilometers_per_second" : "19.1845734293",
          "kilometers_per_hour" : "69064.4643456377",
          "miles_per_hour" : "42913.9723040991"
        },
        "miss_distance" : {
          "astronomical" : "0.4689942751",
          "lunar" : "182.4387817383",
          "kilometers" : "70160544",
          "miles" : "43595744"
        },
        "orbiting_body" : "Earth"
      } ],
      "orbital_data" : {
        "orbit_id" : "8",
        "orbit_determination_date" : "2017-04-06 08:25:06",
        "orbit_uncertainty" : "7",
        "minimum_orbit_intersection" : ".0516835",
        "jupiter_tisserand_invariant" : "3.350",
        "epoch_osculation" : "2458000.5",
        "eccentricity" : ".5363818434019667",
        "semi_major_axis" : "2.290417244860886",
        "inclination" : "15.63510813319293",
        "ascending_node_longitude" : "116.6530941870028",
        "orbital_period" : "1266.106779302801",
        "perihelion_distance" : "1.06187902090275",
        "perihelion_argument" : "191.2057688613532",
        "aphelion_distance" : "3.518955468819022",
        "perihelion_time" : "2457602.513113615357",
        "mean_anomaly" : "113.1620819354335",
        "mean_motion" : ".284336207565557",
        "equinox" : "J2000"
      }
    }, {
      "links" : {
        "self" : "https://api.nasa.gov/neo/rest/v1/neo/3767244?api_key=t0TVs3DtDT2H8Oy2Zy8m2eVrNsAVKAexjcZXUckd"
      },
      "neo_reference_id" : "3767244",
      "name" : "(2017 BL31)",
      "nasa_jpl_url" : "http://ssd.jpl.nasa.gov/sbdb.cgi?sstr=3767244",
      "absolute_magnitude_h" : 18.9,
      "estimated_diameter" : {
        "kilometers" : {
          "estimated_diameter_min" : 0.4411182,
          "estimated_diameter_max" : 0.9863702813
        },
        "meters" : {
          "estimated_diameter_min" : 441.1181999969,
          "estimated_diameter_max" : 986.3702813054
        },
        "miles" : {
          "estimated_diameter_min" : 0.2740980571,
          "estimated_diameter_max" : 0.6129018881
        },
        "feet" : {
          "estimated_diameter_min" : 1447.2382352778,
          "estimated_diameter_max" : 3236.1230737181
        }
      },
      "is_potentially_hazardous_asteroid" : false,
      "close_approach_data" : [ {
        "close_approach_date" : "2009-09-08",
        "epoch_date_close_approach" : 1252393200000,
        "relative_velocity" : {
          "kilometers_per_second" : "34.7033350617",
          "kilometers_per_hour" : "124932.0062221171",
          "miles_per_hour" : "77627.8901995149"
        },
        "miss_distance" : {
          "astronomical" : "0.3784212817",
          "lunar" : "147.205871582",
          "kilometers" : "56611016",
          "miles" : "35176456"
        },
        "orbiting_body" : "Earth"
      } ],
      "orbital_data" : {
        "orbit_id" : "5",
        "orbit_determination_date" : "2017-04-06 08:20:39",
        "orbit_uncertainty" : "6",
        "minimum_orbit_intersection" : ".14126",
        "jupiter_tisserand_invariant" : "2.768",
        "epoch_osculation" : "2458000.5",
        "eccentricity" : ".850396866214958",
        "semi_major_axis" : "2.467057511309599",
        "inclination" : "24.6062130177394",
        "ascending_node_longitude" : "103.4687551290266",
        "orbital_period" : "1415.361368147259",
        "perihelion_distance" : ".3690795349198426",
        "perihelion_argument" : "131.8948915543383",
        "aphelion_distance" : "4.565035487699355",
        "perihelion_time" : "2457883.398689618727",
        "mean_anomaly" : "29.78495293568893",
        "mean_motion" : ".2543520037368608",
        "equinox" : "J2000"
      }
    } ]
  }
}